{"type": "FeatureCollection", "features": [ {"type": "Feature", "properties": {"norad_id": 42987, "name": "SKYSAT-C11", "group": "resource", "lat": -39.402751612390674, "lon": 138.05763351104196, "alt_km": 430.4837398327418, "timestamp": "2025-12-20T05:41:49.675793+00:00", "meta": {"OBJECT_NAME": "SKYSAT-C11", "OBJECT_ID": "2017-068A", "EPOCH": "2025-12-19T22:06:37.738368", "MEAN_MOTION": 15.47735322, "ECCENTRICITY": 0.00011445, "INCLINATION": 97.4144, "RA_OF_ASC_NODE": 131.5924, "ARG_OF_PERICENTER": 100.1685, "MEAN_ANOMALY": 259.9694, "EPHEMERIS_TYPE": 0, "CLASSIFICATION_TYPE": "U", "NORAD_CAT_ID": 42987, "ELEMENT_SET_NO": 999, "REV_AT_EPOCH": 45542, "BSTAR": 0.00031777353, "MEAN_MOTION_DOT": 0.00016374, "MEAN_MOTION_DDOT": 0}, "tle": {"line1": "1 42987U 17068A   25353.92127012  .00016374  00000+0  31777-3 0  9992", "line2": "2 42987  97.4144 131.5924 0001144 100.1685 259.9694 15.47735322455420"}}, "geometry": {"type": "Point", "coordinates": [138.05763351104196, -39.402751612390674]}}, {"type": "Feature", "properties": {"norad_id": 42988, "name": "SKYSAT-C10", "group": "resource", "lat": -15.96062860563273, "lon": 127.24742958144505, "alt_km": 474.70180794662156, "timestamp": "2025-12-20T05:41:49.675804+00:00", "meta": {"OBJECT_NAME": "SKYSAT-C10", "OBJECT_ID": "2017-068B", "EPOCH": "2025-12-19T20:21:46.673568", "MEAN_MOTION": 15.3220525, "ECCENTRICITY": 0.00054481, "INCLINATION": 97.4263, "RA_OF_ASC_NODE": 124.7195, "ARG_OF_PERICENTER": 84.1499, "MEAN_ANOMALY": 276.0364, "EPHEMERIS_TYPE": 0, "CLASSIFICATION_TYPE": "U", "NORAD_CAT_ID": 42988, "ELEMENT_SET_NO": 999, "REV_AT_EPOCH": 45488, "BSTAR": 0.0002597531, "MEAN_MOTION_DOT": 8.002e-05, "MEAN_MOTION_DDOT": 0}, "tle": {"line1": "1 42988U 17068B   25353.84845687  .00008002  00000+0  25975-3 0  9991", "line2": "2 42988  97.4263 124.7195 0005448  84.1499 276.0364 15.32205250454881"}}, "geometry": {"type": "Point", "coordinates": [127.24742958144505, -15.96062860563273]}}, {"type": "Feature", "properties": {"norad_id": 42989, "name": "SKYSAT-C9", "group": "resource", "lat": -59.806617405100205, "lon": 137.49401284341272, "alt_km": 468.5076231579451, "timestamp": "2025-12-20T05:41:49.675814+00:00", "meta": {"OBJECT_NAME": "SKYSAT-C9", "OBJECT_ID": "2017-068C", "EPOCH": "2025-12-19T22:08:39.748128", "MEAN_MOTION": 15.36222028, "ECCENTRICITY": 0.00105224, "INCLINATION": 97.42, "RA_OF_ASC_NODE": 124.2339, "ARG_OF_PERICENTER": 64.896, "MEAN_ANOMALY": 295.3374, "EPHEMERIS_TYPE": 0, "CLASSIFICATION_TYPE": "U", "NORAD_CAT_ID": 42989, "ELEMENT_SET_NO": 999, "REV_AT_EPOCH": 45518, "BSTAR": 0.00026714799, "MEAN_MOTION_DOT": 9.366e-05, "MEAN_MOTION_DDOT": 0}, "tle": {"line1": "1 42989U 17068C   25353.92268227  .00009366  00000+0  26715-3 0  9997", "line2": "2 42989  97.4200 124.2339 0010522  64.8960 295.3374 15.36222028455180"}}, "geometry": {"type": "Point", "coordinates": [137.49401284341272, -59.806617405100205]}}, {"type": "Feature", "properties": {"norad_id": 42990, "name": "SKYSAT-C8", "group": "resource", "lat": -5.719854355587006, "lon": -56.478081862443474, "alt_km": 470.8592389251935, "timestamp": "2025-12-20T05:41:49.675824+00:00", "meta": {"OBJECT_NAME": "SKYSAT-C8", "OBJECT_ID": "2017-068D", "EPOCH": "2025-12-19T22:37:25.665888", "MEAN_MOTION": 15.33070014, "ECCENTRICITY": 0.00010923, "INCLINATION": 97.4285, "RA_OF_ASC_NODE": 123.9747, "ARG_OF_PERICENTER": 308.4211, "MEAN_ANOMALY": 51.6933, "EPHEMERIS_TYPE": 0, "CLASSIFICATION_TYPE": "U", "NORAD_CAT_ID": 42990, "ELEMENT_SET_NO": 999, "REV_AT_EPOCH": 45481, "BSTAR": 0.00025398802, "MEAN_MOTION_DOT": 8.035e-05, "MEAN_MOTION_DDOT": 0}, "tle": {"line1": "1 42990U 17068D   25353.94265817  .00008035  00000+0  25399-3 0  9992", "line2": "2 42990  97.4285 123.9747 0001092 308.4211  51.6933 15.33070014454818"}}, "geometry": {"type": "Point", "coordinates": [-56.478081862443474, -5.719854355587006]}}, {"type": "Feature", "properties": {"norad_id": 42991, "name": "SKYSAT-C7", "group": "resource", "lat": 24.630664543343393, "lon": 121.8759701165684, "alt_km": 462.9976185931164, "timestamp": "2025-12-20T05:41:49.675834+00:00", "meta": {"OBJECT_NAME": "SKYSAT-C7", "OBJECT_ID": "2017-068E", "EPOCH": "2025-12-19T21:45:13.033440", "MEAN_MOTION": 15.32469275, "ECCENTRICITY": 0.000719, "INCLINATION": 97.4291, "RA_OF_ASC_NODE": 124.9736, "ARG_OF_PERICENTER": 34.9909, "MEAN_ANOMALY": 325.1804, "EPHEMERIS_TYPE": 0, "CLASSIFICATION_TYPE": "U", "NORAD_CAT_ID": 42991, "ELEMENT_SET_NO": 999, "REV_AT_EPOCH": 45487, "BSTAR": 0.00025392521, "MEAN_MOTION_DOT": 7.888e-05, "MEAN_MOTION_DDOT": 0}, "tle": {"line1": "1 42991U 17068E   25353.90640085  .00007888  00000+0  25393-3 0  9992", "line2": "2 42991  97.4291 124.9736 0007190  34.9909 325.1804 15.32469275454877"}}, "geometry": {"type": "Point", "coordinates": [121.8759701165684, 24.630664543343393]}}, {"type": "Feature", "properties": {"norad_id": 42992, "name": "SKYSAT-C6", "group": "resource", "lat": 59.77861032334602, "lon": -41.31113884888858, "alt_km": 463.3415686252647, "timestamp": "2025-12-20T05:41:49.675844+00:00", "meta": {"OBJECT_NAME": "SKYSAT-C6", "OBJECT_ID": "2017-068F", "EPOCH": "2025-12-19T21:20:18.813696", "MEAN_MOTION": 15.31627446, "ECCENTRICITY": 0.00049954, "INCLINATION": 97.4326, "RA_OF_ASC_NODE": 125.389, "ARG_OF_PERICENTER": 63.135, "MEAN_ANOMALY": 297.0401, "EPHEMERIS_TYPE": 0, "CLASSIFICATION_TYPE": "U", "NORAD_CAT_ID": 42992, "ELEMENT_SET_NO": 999, "REV_AT_EPOCH": 45485, "BSTAR": 0.00024147721, "MEAN_MOTION_DOT": 7.299e-05, "MEAN_MOTION_DDOT": 0}, "tle": {"line1": "1 42992U 17068F   25353.88910664  .00007299  00000+0  24148-3 0  9996", "line2": "2 42992  97.4326 125.3890 0004995  63.1350 297.0401 15.31627446454850"}}, "geometry": {"type": "Point", "coordinates": [-41.31113884888858, 59.77861032334602]}}, {"type": "Feature", "properties": {"norad_id": 43111, "name": "CARTOSAT-2F", "group": "resource", "lat": -72.8501728645893, "lon": -153.26721582618154, "alt_km": 516.411945786378, "timestamp": "2025-12-20T05:41:49.675854+00:00", "meta": {"OBJECT_NAME": "CARTOSAT-2F", "OBJECT_ID": "2018-004A", "EPOCH": "2025-12-19T22:15:25.864416", "MEAN_MOTION": 15.19186459, "ECCENTRICITY": 0.00013653, "INCLINATION": 97.4312, "RA_OF_ASC_NODE": 51.4494, "ARG_OF_PERICENTER": 107.9872, "MEAN_ANOMALY": 252.1511, "EPHEMERIS_TYPE": 0, "CLASSIFICATION_TYPE": "U", "NORAD_CAT_ID": 43111, "ELEMENT_SET_NO": 999, "REV_AT_EPOCH": 44011, "BSTAR": 0.00013379814, "MEAN_MOTION_DOT": 2.747e-05, "MEAN_MOTION_DDOT": 0}, "tle": {"line1": "1 43111U 18004A   25353.92738269  .00002747  00000+0  13380-3 0  9994", "line2": "2 43111  97.4312  51.4494 0001365 107.9872 252.1511 15.19186459440110"}}, "geometry": {"type": "Point", "coordinates": [-153.26721582618154, -72.8501728645893]}}, {"type": "Feature", "properties": {"norad_id": 43259, "name": "GAOFEN-1 02", "group": "resource", "lat": -52.99340249426998, "lon": 62.8938919540481, "alt_km": 648.3486951587984, "timestamp": "2025-12-20T05:41:49.675864+00:00", "meta": {"OBJECT_NAME": "GAOFEN-1 02", "OBJECT_ID": "2018-031A", "EPOCH": "2025-12-19T21:48:27.658944", "MEAN_MOTION": 14.76427557, "ECCENTRICITY": 0.0002217, "INCLINATION": 98.0802, "RA_OF_ASC_NODE": 51.701, "ARG_OF_PERICENTER": 189.1562, "MEAN_ANOMALY": 170.9608, "EPHEMERIS_TYPE": 0, "CLASSIFICATION_TYPE": "U", "NORAD_CAT_ID": 43259, "ELEMENT_SET_NO": 999, "REV_AT_EPOCH": 41624, "BSTAR": 3.9704409e-05, "MEAN_MOTION_DOT": 2.24e-06, "MEAN_MOTION_DDOT": 0}, "tle": {"line1": "1 43259U 18031A   25353.90865346  .00000224  00000+0  39704-4 0  9999", "line2": "2 43259  98.0802  51.7010 0002217 189.1562 170.9608 14.76427557416246"}}, "geometry": {"type": "Point", "coordinates": [62.8938919540481, -52.99340249426998]}}, {"type": "Feature", "properties": {"norad_id": 43260, "name": "GAOFEN-1 03", "group": "resource", "lat": 60.96284382243086, "lon": 37.081032642057274, "alt_km": 635.5223728265983, "timestamp": "2025-12-20T05:41:49.675875+00:00", "meta": {"OBJECT_NAME": "GAOFEN-1 03", "OBJECT_ID": "2018-031B", "EPOCH": "2025-12-19T22:54:40.375008", "MEAN_MOTION": 14.76450505, "ECCENTRICITY": 0.00017071, "INCLINATION": 98.0789, "RA_OF_ASC_NODE": 51.6226, "ARG_OF_PERICENTER": 284.4933, "MEAN_ANOMALY": 75.6087, "EPHEMERIS_TYPE": 0, "CLASSIFICATION_TYPE": "U", "NORAD_CAT_ID": 43260, "ELEMENT_SET_NO": 999, "REV_AT_EPOCH": 41624, "BSTAR": 9.6834548e-05, "MEAN_MOTION_DOT": 6.22e-06, "MEAN_MOTION_DDOT": 0}, "tle": {"line1": "1 43260U 18031B   25353.95463397  .00000622  00000+0  96835-4 0  9996", "line2": "2 43260  98.0789  51.6226 0001707 284.4933  75.6087 14.76450505416245"}}, "geometry": {"type": "Point", "coordinates": [37.081032642057274, 60.96284382243086]}}, {"type": "Feature", "properties": {"norad_id": 43262, "name": "GAOFEN-1 04", "group": "resource", "lat": -11.596833503115702, "lon": -129.5944439582795, "alt_km": 645.4436331589914, "timestamp": "2025-12-20T05:41:49.675885+00:00", "meta": {"OBJECT_NAME": "GAOFEN-1 04", "OBJECT_ID": "2018-031D", "EPOCH": "2025-12-19T22:19:33.373632", "MEAN_MOTION": 14.7641999, "ECCENTRICITY": 7.476e-05, "INCLINATION": 98.0805, "RA_OF_ASC_NODE": 51.769, "ARG_OF_PERICENTER": 51.32, "MEAN_ANOMALY": 308.8076, "EPHEMERIS_TYPE": 0, "CLASSIFICATION_TYPE": "U", "NORAD_CAT_ID": 43262, "ELEMENT_SET_NO": 999, "REV_AT_EPOCH": 41623, "BSTAR": 0.00010304293, "MEAN_MOTION_DOT": 6.65e-06, "MEAN_MOTION_DDOT": 0}, "tle": {"line1": "1 43262U 18031D   25353.93024738  .00000665  00000+0  10304-3 0  9991", "line2": "2 43262  98.0805  51.7690 0000747  51.3200 308.8076 14.76419990416234"}}, "geometry": {"type": "Point", "coordinates": [-129.5944439582795, -11.596833503115702]}}]}